{"type": "FeatureCollection", "features": [ {"type": "Feature", "properties": {"norad_id": 66534, "name": "STARLINK-35976", "group": "last-30-days", "lat": -24.607166862514653, "lon": 43.552917725594675, "alt_km": 411.20048167183995, "timestamp": "2025-12-09T11:33:53.575379+00:00", "meta": {"OBJECT_NAME": "STARLINK-35976", "OBJECT_ID": "2025-265U", "EPOCH": "2025-12-09T04:00:01.998720", "MEAN_MOTION": 15.53823482, "ECCENTRICITY": 0.0001571, "INCLINATION": 43.0002, "RA_OF_ASC_NODE": 74.8419, "ARG_OF_PERICENTER": 265.7133, "MEAN_ANOMALY": 92.3013, "EPHEMERIS_TYPE": 0, "CLASSIFICATION_TYPE": "U", "NORAD_CAT_ID": 66534, "ELEMENT_SET_NO": 999, "REV_AT_EPOCH": 442, "BSTAR": -0.033118, "MEAN_MOTION_DOT": -0.01957969, "MEAN_MOTION_DDOT": 0}, "tle": {"line1": "1 66534U 25265U   25343.16668980 -.01957969  00000+0 -33118-1 0  9999", "line2": "2 66534  43.0002  74.8419 0001571 265.7133  92.3013 15.53823482  4428"}}, "geometry": {"type": "Point", "coordinates": [43.552917725594675, -24.607166862514653]}}, {"type": "Feature", "properties": {"norad_id": 66535, "name": "STARLINK-35514", "group": "last-30-days", "lat": -23.46002787772493, "lon": 45.22895488987796, "alt_km": 411.2605287255283, "timestamp": "2025-12-09T11:33:53.575389+00:00", "meta": {"OBJECT_NAME": "STARLINK-35514", "OBJECT_ID": "2025-265V", "EPOCH": "2025-12-09T04:00:01.998720", "MEAN_MOTION": 15.53822379, "ECCENTRICITY": 0.0001473, "INCLINATION": 43.0002, "RA_OF_ASC_NODE": 74.8369, "ARG_OF_PERICENTER": 261.9733, "MEAN_ANOMALY": 97.9604, "EPHEMERIS_TYPE": 0, "CLASSIFICATION_TYPE": "U", "NORAD_CAT_ID": 66535, "ELEMENT_SET_NO": 999, "REV_AT_EPOCH": 442, "BSTAR": -0.033113, "MEAN_MOTION_DOT": -0.01957566, "MEAN_MOTION_DDOT": 0}, "tle": {"line1": "1 66535U 25265V   25343.16668980 -.01957566  00000+0 -33113-1 0  9998", "line2": "2 66535  43.0002  74.8369 0001473 261.9733  97.9604 15.53822379  4429"}}, "geometry": {"type": "Point", "coordinates": [45.22895488987796, -23.46002787772493]}}, {"type": "Feature", "properties": {"norad_id": 66536, "name": "STARLINK-35640", "group": "last-30-days", "lat": -22.297124578829255, "lon": 46.87331101078456, "alt_km": 411.02881864255323, "timestamp": "2025-12-09T11:33:53.575400+00:00", "meta": {"OBJECT_NAME": "STARLINK-35640", "OBJECT_ID": "2025-265W", "EPOCH": "2025-12-09T04:00:01.998720", "MEAN_MOTION": 15.53814674, "ECCENTRICITY": 0.0001631, "INCLINATION": 43.0003, "RA_OF_ASC_NODE": 74.832, "ARG_OF_PERICENTER": 267.0629, "MEAN_ANOMALY": 94.7868, "EPHEMERIS_TYPE": 0, "CLASSIFICATION_TYPE": "U", "NORAD_CAT_ID": 66536, "ELEMENT_SET_NO": 999, "REV_AT_EPOCH": 440, "BSTAR": -0.032822, "MEAN_MOTION_DOT": -0.01907217, "MEAN_MOTION_DDOT": 0}, "tle": {"line1": "1 66536U 25265W   25343.16668980 -.01907217  00000+0 -32822-1 0  9993", "line2": "2 66536  43.0003  74.8320 0001631 267.0629  94.7868 15.53814674  4409"}}, "geometry": {"type": "Point", "coordinates": [46.87331101078456, -22.297124578829255]}}, {"type": "Feature", "properties": {"norad_id": 66537, "name": "STARLINK-35582", "group": "last-30-days", "lat": -21.11511720474373, "lon": 48.49411250759484, "alt_km": 411.133509597812, "timestamp": "2025-12-09T11:33:53.575410+00:00", "meta": {"OBJECT_NAME": "STARLINK-35582", "OBJECT_ID": "2025-265X", "EPOCH": "2025-12-09T04:00:01.998720", "MEAN_MOTION": 15.53818802, "ECCENTRICITY": 0.0001538, "INCLINATION": 43.0004, "RA_OF_ASC_NODE": 74.8273, "ARG_OF_PERICENTER": 260.8764, "MEAN_ANOMALY": 102.8901, "EPHEMERIS_TYPE": 0, "CLASSIFICATION_TYPE": "U", "NORAD_CAT_ID": 66537, "ELEMENT_SET_NO": 999, "REV_AT_EPOCH": 442, "BSTAR": -0.032939, "MEAN_MOTION_DOT": -0.01948169, "MEAN_MOTION_DDOT": 0}, "tle": {"line1": "1 66537U 25265X   25343.16668980 -.01948169  00000+0 -32939-1 0  9994", "line2": "2 66537  43.0004  74.8273 0001538 260.8764 102.8901 15.53818802  4423"}}, "geometry": {"type": "Point", "coordinates": [48.49411250759484, -21.11511720474373]}}, {"type": "Feature", "properties": {"norad_id": 66538, "name": "STARLINK-35577", "group": "last-30-days", "lat": -19.918837892387252, "lon": 50.08735863290263, "alt_km": 410.9068675427052, "timestamp": "2025-12-09T11:33:53.575419+00:00", "meta": {"OBJECT_NAME": "STARLINK-35577", "OBJECT_ID": "2025-265Y", "EPOCH": "2025-12-09T04:00:01.998720", "MEAN_MOTION": 15.53818408, "ECCENTRICITY": 0.0001728, "INCLINATION": 43.0005, "RA_OF_ASC_NODE": 74.8222, "ARG_OF_PERICENTER": 265.4598, "MEAN_ANOMALY": 100.2226, "EPHEMERIS_TYPE": 0, "CLASSIFICATION_TYPE": "U", "NORAD_CAT_ID": 66538, "ELEMENT_SET_NO": 999, "REV_AT_EPOCH": 442, "BSTAR": -0.032911, "MEAN_MOTION_DOT": -0.01912034, "MEAN_MOTION_DDOT": 0}, "tle": {"line1": "1 66538U 25265Y   25343.16668980 -.01912034  00000+0 -32911-1 0  9997", "line2": "2 66538  43.0005  74.8222 0001728 265.4598 100.2226 15.53818408  4420"}}, "geometry": {"type": "Point", "coordinates": [50.08735863290263, -19.918837892387252]}}, {"type": "Feature", "properties": {"norad_id": 66539, "name": "STARLINK-35697", "group": "last-30-days", "lat": -18.70889212315169, "lon": 51.65509419238313, "alt_km": 410.844389749177, "timestamp": "2025-12-09T11:33:53.575435+00:00", "meta": {"OBJECT_NAME": "STARLINK-35697", "OBJECT_ID": "2025-265Z", "EPOCH": "2025-12-09T04:00:01.998720", "MEAN_MOTION": 15.53814857, "ECCENTRICITY": 0.0001642, "INCLINATION": 42.9998, "RA_OF_ASC_NODE": 74.8169, "ARG_OF_PERICENTER": 266.5743, "MEAN_ANOMALY": 101.0276, "EPHEMERIS_TYPE": 0, "CLASSIFICATION_TYPE": "U", "NORAD_CAT_ID": 66539, "ELEMENT_SET_NO": 999, "REV_AT_EPOCH": 442, "BSTAR": -0.032844, "MEAN_MOTION_DOT": -0.01908328, "MEAN_MOTION_DDOT": 0}, "tle": {"line1": "1 66539U 25265Z   25343.16668980 -.01908328  00000+0 -32844-1 0  9994", "line2": "2 66539  42.9998  74.8169 0001642 266.5743 101.0276 15.53814857  4427"}}, "geometry": {"type": "Point", "coordinates": [51.65509419238313, -18.70889212315169]}}, {"type": "Feature", "properties": {"norad_id": 66540, "name": "STARLINK-35818", "group": "last-30-days", "lat": -17.485885701209437, "lon": 53.20289305930952, "alt_km": 410.744605535946, "timestamp": "2025-12-09T11:33:53.575447+00:00", "meta": {"OBJECT_NAME": "STARLINK-35818", "OBJECT_ID": "2025-265AA", "EPOCH": "2025-12-09T04:00:01.998720", "MEAN_MOTION": 15.5381076, "ECCENTRICITY": 0.0001677, "INCLINATION": 43.0003, "RA_OF_ASC_NODE": 74.813, "ARG_OF_PERICENTER": 266.8857, "MEAN_ANOMALY": 102.6331, "EPHEMERIS_TYPE": 0, "CLASSIFICATION_TYPE": "U", "NORAD_CAT_ID": 66540, "ELEMENT_SET_NO": 999, "REV_AT_EPOCH": 442, "BSTAR": -0.032657, "MEAN_MOTION_DOT": -0.01898566, "MEAN_MOTION_DDOT": 0}, "tle": {"line1": "1 66540U 25265AA  25343.16668980 -.01898566  00000+0 -32657-1 0  9990", "line2": "2 66540  43.0003  74.8130 0001677 266.8857 102.6331 15.53810760  4421"}}, "geometry": {"type": "Point", "coordinates": [53.20289305930952, -17.485885701209437]}}, {"type": "Feature", "properties": {"norad_id": 66541, "name": "STARLINK-35796", "group": "last-30-days", "lat": -16.250764477806754, "lon": 54.728381452795574, "alt_km": 410.66250106058396, "timestamp": "2025-12-09T11:33:53.575457+00:00", "meta": {"OBJECT_NAME": "STARLINK-35796", "OBJECT_ID": "2025-265AB", "EPOCH": "2025-12-09T04:00:01.998720", "MEAN_MOTION": 15.53813481, "ECCENTRICITY": 0.0001668, "INCLINATION": 43.0002, "RA_OF_ASC_NODE": 74.8078, "ARG_OF_PERICENTER": 267.2182, "MEAN_ANOMALY": 104.2157, "EPHEMERIS_TYPE": 0, "CLASSIFICATION_TYPE": "U", "NORAD_CAT_ID": 66541, "ELEMENT_SET_NO": 999, "REV_AT_EPOCH": 442, "BSTAR": -0.032708, "MEAN_MOTION_DOT": -0.01901312, "MEAN_MOTION_DDOT": 0}, "tle": {"line1": "1 66541U 25265AB  25343.16668980 -.01901312  00000+0 -32708-1 0  9992", "line2": "2 66541  43.0002  74.8078 0001668 267.2182 104.2157 15.53813481  4425"}}, "geometry": {"type": "Point", "coordinates": [54.728381452795574, -16.250764477806754]}}, {"type": "Feature", "properties": {"norad_id": 66542, "name": "STARLINK-35833", "group": "last-30-days", "lat": -15.004443083374456, "lon": 56.235771015661335, "alt_km": 410.52621538868516, "timestamp": "2025-12-09T11:33:53.575467+00:00", "meta": {"OBJECT_NAME": "STARLINK-35833", "OBJECT_ID": "2025-265AC", "EPOCH": "2025-12-09T04:00:01.998720", "MEAN_MOTION": 15.53813396, "ECCENTRICITY": 0.000168, "INCLINATION": 43.0002, "RA_OF_ASC_NODE": 74.8032, "ARG_OF_PERICENTER": 269.665, "MEAN_ANOMALY": 103.6872, "EPHEMERIS_TYPE": 0, "CLASSIFICATION_TYPE": "U", "NORAD_CAT_ID": 66542, "ELEMENT_SET_NO": 999, "REV_AT_EPOCH": 442, "BSTAR": -0.032735, "MEAN_MOTION_DOT": -0.01902716, "MEAN_MOTION_DDOT": 0}, "tle": {"line1": "1 66542U 25265AC  25343.16668980 -.01902716  00000+0 -32735-1 0  9992", "line2": "2 66542  43.0002  74.8032 0001680 269.6650 103.6872 15.53813396  4428"}}, "geometry": {"type": "Point", "coordinates": [56.235771015661335, -15.004443083374456]}}, {"type": "Feature", "properties": {"norad_id": 66543, "name": "STARLINK-35315", "group": "last-30-days", "lat": -13.747759829829311, "lon": 57.72512049551814, "alt_km": 410.48750347802616, "timestamp": "2025-12-09T11:33:53.575501+00:00", "meta": {"OBJECT_NAME": "STARLINK-35315", "OBJECT_ID": "2025-265AD", "EPOCH": "2025-12-09T04:00:01.998720", "MEAN_MOTION": 15.53817002, "ECCENTRICITY": 0.0001729, "INCLINATION": 43.0005, "RA_OF_ASC_NODE": 74.7974, "ARG_OF_PERICENTER": 267.4014, "MEAN_ANOMALY": 107.8668, "EPHEMERIS_TYPE": 0, "CLASSIFICATION_TYPE": "U", "NORAD_CAT_ID": 66543, "ELEMENT_SET_NO": 999, "REV_AT_EPOCH": 431, "BSTAR": -0.032855, "MEAN_MOTION_DOT": -0.01909114, "MEAN_MOTION_DDOT": 0}, "tle": {"line1": "1 66543U 25265AD  25343.16668980 -.01909114  00000+0 -32855-1 0  9995", "line2": "2 66543  43.0005  74.7974 0001729 267.4014 107.8668 15.53817002  4315"}}, "geometry": {"type": "Point", "coordinates": [57.72512049551814, -13.747759829829311]}}]}